NORAD_CAT_ID,OBJECT_NAME,OBJECT_TYPE,EPOCH,MEAN_MOTION,ECCENTRICITY,INCLINATION,RA_OF_ASC_NODE,ARG_OF_PERICENTER,MEAN_ANOMALY,BSTAR,MEAN_MOTION_DOT,MEAN_MOTION_DDOT,TLE_LINE0,TLE_LINE1,TLE_LINE2,SEMIMAJOR_AXIS,PERIOD,APOGEE,PERIGEE,DECAYED
53802.0,STARLINK-4726,PAYLOAD,2024-07-18 09:14:31,15.08843693,0.0001403,53.2182,74.3692,113.3724,246.7416,0.0014629,0.00023073,0.0,0 STARLINK-4726,1 53802U 22111AF  24200.38508150  .00023073  00000-0  14629-2 0  9992,2 53802  53.2182  74.3692 0001403 113.3724 246.7416 15.08843693103349,6917.869,95.437,540.705,538.764,0.0
53802.0,STARLINK-4726,PAYLOAD,2024-07-18 20:22:13,15.08830992,0.0001102,53.2171,72.2925,90.6311,269.4807,0.0015965,0.00025205,0.0,0 STARLINK-4726,1 53802U 22111AF  24200.84876833  .00025205  00000-0  15965-2 0  9992,2 53802  53.2171  72.2925 0001102  90.6311 269.4807 15.08830992102600,6917.908,95.438,540.535,539.011,0.0
53802.0,STARLINK-4726,PAYLOAD,2024-07-18 21:57:36,15.08827671,0.0001503,53.217,71.9986,70.047,290.0684,0.0013607,0.00021427,0.0,0 STARLINK-4726,1 53802U 22111AF  24200.91501084  .00021427  00000-0  13607-2 0  9996,2 53802  53.2170  71.9986 0001503  70.0470 290.0684 15.08827671103429,6917.918,95.438,540.823,538.743,0.0
53802.0,STARLINK-4726,PAYLOAD,2024-07-19 21:48:23,15.0884727,0.0001294,53.2171,67.5353,81.4989,278.615,0.00069404,0.00010777,0.0,0 STARLINK-4726,1 53802U 22111AF  24201.90861047  .00010777  00000-0  69404-3 0  9997,2 53802  53.2171  67.5353 0001294  81.4989 278.6150 15.08847270102760,6917.858,95.437,540.618,538.828,0.0
53802.0,STARLINK-4726,PAYLOAD,2024-07-20 00:59:10,15.08847828,0.0001221,53.2169,66.9381,80.2553,279.8577,0.00054122,8.338e-05,0.0,0 STARLINK-4726,1 53802U 22111AF  24202.04108930  .00008338  00000-0  54122-3 0  9999,2 53802  53.2169  66.9381 0001221  80.2553 279.8577 15.08847828103592,6917.856,95.437,540.566,538.877,0.0
53802.0,STARLINK-4726,PAYLOAD,2024-07-20 21:39:10,15.08844754,0.0001028,53.2153,63.0692,78.8522,281.2586,0.00021231,3.093e-05,0.0,0 STARLINK-4726,1 53802U 22111AF  24202.90220816  .00003093  00000-0  21231-3 0  9990,2 53802  53.2153  63.0692 0001028  78.8522 281.2586 15.08844754102919,6917.866,95.437,540.442,539.02,0.0
53802.0,STARLINK-4726,PAYLOAD,2024-07-21 00:49:57,15.08841089,0.000106,53.2159,62.4759,78.2835,281.8276,0.00011284,1.509e-05,0.0,0 STARLINK-4726,1 53802U 22111AF  24203.03468952  .00001509  00000-0  11284-3 0  9997,2 53802  53.2159  62.4759 0001060  78.2835 281.8276 15.08841089103741,6917.877,95.437,540.475,539.009,0.0
53802.0,STARLINK-4726,PAYLOAD,2024-07-21 19:54:34,15.08839783,0.0001064,53.2163,58.9074,77.6668,282.4443,4.9901e-05,5.06e-06,0.0,0 STARLINK-4726,1 53802U 22111AF  24203.82957084  .00000506  00000-0  49901-4 0  9997,2 53802  53.2163  58.9074 0001064  77.6668 282.4443 15.08839783103052,6917.881,95.438,540.482,539.01,0.0
53802.0,STARLINK-4726,PAYLOAD,2024-07-21 21:29:58,15.08840239,0.0001076,53.2162,58.6101,77.8961,282.2152,5.1544e-05,5.33e-06,0.0,0 STARLINK-4726,1 53802U 22111AF  24203.89581046  .00000533  00000-0  51544-4 0  9991,2 53802  53.2162  58.6101 0001076  77.8961 282.2152 15.08840239103873,6917.88,95.438,540.489,539.0,0.0
53802.0,STARLINK-4726,PAYLOAD,2024-07-22 00:40:44,15.08838827,0.0001104,53.2164,58.0157,78.5681,281.5435,2.5947e-05,1.25e-06,0.0,0 STARLINK-4726,1 53802U 22111AF  24204.02829118  .00000125  00000-0  25947-4 0  9997,2 53802  53.2164  58.0157 0001104  78.5681 281.5435 15.08838827103897,6917.884,95.438,540.513,538.985,0.0
53802.0,STARLINK-4726,PAYLOAD,2024-07-22 22:56:08,15.08840438,0.0001018,53.217,53.8535,87.5236,272.5873,0.00011927,1.611e-05,0.0,0 STARLINK-4726,1 53802U 22111AF  24204.95565188  .00001611  00000-0  11927-3 0  9996,2 53802  53.2170  53.8535 0001018  87.5236 272.5873 15.08840438104031,6917.879,95.438,540.448,539.04,0.0
53802.0,STARLINK-4726,PAYLOAD,2024-07-23 06:53:03,15.08856358,0.000144,53.2176,52.3664,64.812,295.3022,0.00024195,3.566e-05,0.0,0 STARLINK-4726,1 53802U 22111AF  24205.28684123  .00003566  00000-0  24195-3 0  9996,2 53802  53.2176  52.3664 0001440  64.8120 295.3022 15.08856358103275,6917.83,95.437,540.692,538.699,0.0
53802.0,STARLINK-4726,PAYLOAD,2024-07-23 22:46:55,15.08832552,0.0001559,53.2169,49.3935,69.1193,290.9966,-2.9408e-05,-7.56e-06,0.0,0 STARLINK-4726,1 53802U 22111AF  24205.94925782 -.00000756  00000-0 -29408-4 0  9991,2 53802  53.2169  49.3935 0001559  69.1193 290.9966 15.08832552103372,6917.903,95.438,540.847,538.69,0.0
53802.0,STARLINK-4726,PAYLOAD,2024-07-24 13:05:23,15.08831486,2.72e-05,53.2183,46.7181,334.4651,25.6328,-6.9155e-06,-3.97e-06,0.0,0 STARLINK-4726,1 53802U 22111AF  24206.54541515 -.00000397  00000-0 -69155-5 0  9991,2 53802  53.2183  46.7181 0000272 334.4651  25.6328 15.08831486104270,6917.906,95.438,539.96,539.583,0.0
53802.0,STARLINK-4726,PAYLOAD,2024-07-25 12:56:10,15.08845545,7.21e-05,53.2172,42.2582,51.917,308.1887,9.2662e-05,1.188e-05,0.0,0 STARLINK-4726,1 53802U 22111AF  24207.53901218  .00001188  00000-0  92662-4 0  9996,2 53802  53.2172  42.2582 0000721  51.9170 308.1887 15.08845545103617,6917.863,95.437,540.227,539.23,0.0
53802.0,STARLINK-4726,PAYLOAD,2024-07-25 19:17:43,15.08837687,7.93e-05,53.2195,41.0705,44.9211,315.1846,0.00017576,2.51e-05,0.0,0 STARLINK-4726,1 53802U 22111AF  24207.80397578  .00002510  00000-0  17576-3 0  9994,2 53802  53.2195  41.0705 0000793  44.9211 315.1846 15.08837687103658,6917.887,95.438,540.301,539.204,0.0
53802.0,STARLINK-4726,PAYLOAD,2024-07-26 22:19:16,15.08846282,0.0001763,53.2143,36.012,86.576,273.5434,0.00014713,2.055e-05,0.0,0 STARLINK-4726,1 53802U 22111AF  24208.93005221  .00002055  00000-0  14713-3 0  9994,2 53802  53.2143  36.0120 0001763  86.5760 273.5434 15.08846282104635,6917.861,95.437,540.946,538.507,0.0
53802.0,STARLINK-4726,PAYLOAD,2024-07-27 12:37:44,15.08843356,0.0002503,53.2117,33.3334,97.7318,262.3958,0.00014073,1.952e-05,0.0,0 STARLINK-4726,1 53802U 22111AF  24209.52621340  .00001952  00000-0  14073-3 0  9990,2 53802  53.2117  33.3334 0002503  97.7318 262.3958 15.08843356103915,6917.87,95.437,541.467,538.004,0.0
53802.0,STARLINK-4726,PAYLOAD,2024-07-27 18:59:18,15.08825687,0.0001096,53.2248,32.15,301.3581,58.7304,-2.6171e-05,-7.04e-06,0.0,0 STARLINK-4726,1 53802U 22111AF  24209.79118832 -.00000704  00000-0 -26171-4 0  9995,2 53802  53.2248  32.1500 0001096 301.3581  58.7304 15.08825687104767,6917.924,95.438,540.547,539.031,0.0
53802.0,STARLINK-4726,PAYLOAD,2024-07-27 22:10:04,15.08831154,8.07e-05,53.2188,31.5508,79.9883,280.12,-8.9777e-06,-4.3e-06,0.0,0 STARLINK-4726,1 53802U 22111AF  24209.92366405 -.00000430  00000-0 -89777-5 0  9999,2 53802  53.2188  31.5508 0000807  79.9883 280.1200 15.08831154103977,6917.907,95.438,540.331,539.214,0.0
53802.0,STARLINK-4726,PAYLOAD,2024-07-28 10:53:09,15.08839262,0.0001064,53.2179,29.1732,86.9256,273.1858,-2.3393e-05,-6.6e-06,0.0,0 STARLINK-4726,1 53802U 22111AF  24210.45358165 -.00000660  00000-0 -23393-4 0  9999,2 53802  53.2179  29.1732 0001064  86.9256 273.1858 15.08839262104056,6917.883,95.438,540.484,539.012,0.0
53802.0,STARLINK-4726,PAYLOAD,2024-07-28 18:50:04,15.08844837,0.0001177,53.218,27.685,84.8791,275.2335,7.9111e-06,-1.62e-06,0.0,0 STARLINK-4726,1 53802U 22111AF  24210.78477808 -.00000162  00000-0  79111-5 0  9997,2 53802  53.2180  27.6850 0001177  84.8791 275.2335 15.08844837104910,6917.866,95.437,540.545,538.916,0.0
53802.0,STARLINK-4726,PAYLOAD,2024-07-29 04:22:22,15.08855778,0.0001158,53.2182,25.9014,81.7478,278.3646,0.00012722,1.738e-05,0.0,0 STARLINK-4726,1 53802U 22111AF  24211.18220760  .00001738  00000-0  12722-3 0  9997,2 53802  53.2182  25.9014 0001158  81.7478 278.3646 15.08855778104164,6917.832,95.437,540.498,538.896,0.0
53802.0,STARLINK-4726,PAYLOAD,2024-07-29 10:43:56,15.08844129,0.0001071,53.2179,24.7195,110.4048,249.7059,0.0002509,3.708e-05,0.0,0 STARLINK-4726,1 53802U 22111AF  24211.44717659  .00003708  00000-0  25090-3 0  9995,2 53802  53.2179  24.7195 0001071 110.4048 249.7059 15.08844129104207,6917.868,95.437,540.474,538.992,0.0
53802.0,STARLINK-4726,PAYLOAD,2024-07-29 20:16:15,15.08836053,0.0001324,53.2181,22.9293,93.3866,266.7278,0.00021725,3.171e-05,0.0,0 STARLINK-4726,1 53802U 22111AF  24211.84462333  .00003171  00000-0  21725-3 0  9990,2 53802  53.2181  22.9293 0001324  93.3866 266.7278 15.08836053104262,6917.892,95.438,540.673,538.842,0.0
53802.0,STARLINK-4726,PAYLOAD,2024-07-30 04:13:10,15.08850595,0.0001564,53.2175,21.4426,84.2767,275.8404,0.00028021,4.176e-05,0.0,0 STARLINK-4726,1 53802U 22111AF  24212.17581556  .00004176  00000-0  28021-3 0  9998,2 53802  53.2175  21.4426 0001564  84.2767 275.8404 15.08850595104317,6917.848,95.437,540.795,538.631,0.0
53802.0,STARLINK-4726,PAYLOAD,2024-07-30 10:34:43,15.08851331,0.00023,53.2173,20.2542,83.7208,276.4046,0.00029187,4.361e-05,0.0,0 STARLINK-4726,1 53802U 22111AF  24212.44077755  .00004361  00000-0  29187-3 0  9999,2 53802  53.2173  20.2542 0002300  83.7208 276.4046 15.08851331105166,6917.846,95.437,541.302,538.12,0.0
53802.0,STARLINK-4726,PAYLOAD,2024-07-30 20:07:02,15.08841535,0.0001682,53.2178,18.4692,91.0017,269.1168,8.7405e-05,1.103e-05,0.0,0 STARLINK-4726,1 53802U 22111AF  24212.83822169  .00001103  00000-0  87405-4 0  9998,2 53802  53.2178  18.4692 0001682  91.0017 269.1168 15.08841535104414,6917.876,95.437,540.904,538.577,0.0
53802.0,STARLINK-4726,PAYLOAD,2024-07-31 04:03:57,15.08859682,0.0001774,53.2177,16.9812,73.2996,286.8191,0.00028836,4.307e-05,0.0,0 STARLINK-4726,1 53802U 22111AF  24213.16941287  .00004307  00000-0  28836-3 0  9999,2 53802  53.2177  16.9812 0001774  73.2996 286.8191 15.08859682105279,6917.82,95.436,540.912,538.458,0.0
53802.0,STARLINK-4726,PAYLOAD,2024-07-31 19:57:49,15.08840621,0.0001334,53.2178,14.0066,71.5536,288.5601,0.0001872,2.693e-05,0.0,0 STARLINK-4726,1 53802U 22111AF  24213.83182270  .00002693  00000-0  18720-3 0  9999,2 53802  53.2178  14.0066 0001334  71.5536 288.5601 15.08840621105372,6917.878,95.438,540.666,538.821,0.0
